STARLINK-11730 [DTC]    
1 64074U 25107L   25157.51784218  .00441661  00000+0  17511-2 0  9990
2 64074  43.0049 324.6903 0004671 296.8235  63.2160 15.84769710  3800
STARLINK-11723 [DTC]    
1 64075U 25107M   25157.51692652  .00521783  00000+0  19899-2 0  9996
2 64075  43.0050 324.6831 0002817 298.3739  61.6850 15.85386633  3751
STARLINK-11715 [DTC]    
1 64076U 25107N   25157.51672590  .00383252  00000+0  15212-2 0  9998
2 64076  43.0051 324.6805 0003615 276.6904  83.3557 15.84894401  3755
STARLINK-34201          
1 64077U 25107P   25155.00002315 -.00878528  00000+0 -60863-2 0  9992
2 64077  43.0025 340.3173 0001935 271.2230  52.4950 15.75956624  3307
STARLINK-34190          
1 64078U 25107Q   25155.00002315 -.00849769  00000+0 -59056-2 0  9990
2 64078  43.0021 340.3015 0001985 274.4086  55.2826 15.75806956  3279
STARLINK-34168          
1 64079U 25107R   25155.66668981 -.01135620  00000+0 -81610-2 0  9996
2 64079  43.0014 336.2671 0001593 259.9326 251.1378 15.75374171  3542
STARLINK-34098          
1 64080U 25107S   25155.00002315 -.00889565  00000+0 -61767-2 0  9993
2 64080  43.0024 340.3069 0001978 272.8891  54.7113 15.75935518  3429
STARLINK-34180          
1 64081U 25107T   25155.66668981 -.01137973  00000+0 -81828-2 0  9993
2 64081  43.0012 336.2523 0001576 269.6781 247.1589 15.75366458  3541
STARLINK-34171          
1 64082U 25107U   25155.00002315 -.00425775  00000+0 -28720-2 0  9996
2 64082  43.0023 340.2915 0001987 274.1060  59.8084 15.75340941  3436
STARLINK-34126          
1 64083U 25107V   25155.66668981 -.01158818  00000+0 -83486-2 0  9998
2 64083  43.0010 336.2325 0001936 272.3468 252.1720 15.75369295  3437
STARLINK-34157          
1 64084U 25107W   25154.91668981  .00108759  00000+0  70420-3 0  9997
2 64084  43.0020 340.7770 0002232 267.7456 320.9224 15.74966995  3429
STARLINK-34140          
1 64085U 25107X   25156.59015709 -.00613346  00000+0 -46814-2 0  9992
2 64085  43.0008 330.6463 0001499 262.8084  97.2614 15.73021107  3670
STARLINK-34132          
1 64086U 25107Y   25156.84393582  .00273011  00000+0  19270-2 0  9994
2 64086  43.0009 329.1094 0005826  16.5076 343.5981 15.72431356  3436
2025-108A               
1 64087U 25108A   25157.47918956  .00004736  00000+0  26786-3 0  9991
2 64087  97.5134 233.0722 0015243 230.6051 129.3831 15.13456811  2472
2025-108B               
1 64088U 25108B   25157.48364596  .00006604  00000+0  37591-3 0  9990
2 64088  97.5097 233.0591 0014491 224.0437 135.9640 15.13086873  2438
2025-108C               
1 64089U 25108C   25157.48505820  .00004925  00000+0  28255-3 0  9999
2 64089  97.5065 233.0473 0015659 224.5802 135.4170 15.12913860  2438
2025-108D               
1 64090U 25108D   25157.48225392  .00004044  00000+0  23126-3 0  9998
2 64090  97.5065 233.0547 0014448 226.3617 133.6417 15.13156056  2432
2025-108E               
1 64091U 25108E   25157.48315671  .00007725  00000+0  43805-3 0  9994
2 64091  97.5060 233.0522 0014551 224.2919 135.7149 15.13163119  2431
2025-108F               
1 64092U 25108F   25157.48160868  .00008548  00000+0  48223-3 0  9994
2 64092  97.5056 233.0532 0014492 226.7344 133.2679 15.13318388  2432
ZK-1 R/B                
1 64093U 25108G   25157.50631841  .00009425  00000+0  22922-3 0  9995
2 64093  97.4644 233.5454 0104575 320.7829  38.5869 15.35620463  2474
TJS-19 AKM              
1 64094U 25097C   25156.01481419  .00000057  00000+0  00000+0 0  9993
2 64094   3.9601 312.8587 0015050 217.1882 142.6960  0.98835458   196
COSMOS 2588             
1 64095U 25109A   25156.93920358  .00007576  00000+0  25632-3 0  9994
2 64095  72.9727 340.8917 0011904 225.0516 134.9716 15.30761428  2086
STARLINK-34178          
1 64096U 25110A   25154.91668981 -.01498929  00000+0 -11036-1 0  9994
2 64096  53.1557 254.1496 0000749  66.5461 350.8198 15.75403275  2939
STARLINK-34174          
1 64097U 25110B   25154.91668981 -.01494156  00000+0 -10999-1 0  9990
2 64097  53.1557 254.1457 0000728  71.6601 347.6279 15.75397287  2936
STARLINK-34146          
1 64098U 25110C   25154.91668981 -.01389874  00000+0 -10193-1 0  9997
2 64098  53.1555 254.1410 0000950  74.4759 346.8411 15.75263441  2939
STARLINK-34074          
1 64099U 25110D   25154.91668981 -.01274285  00000+0 -92943-2 0  9991
2 64099  53.1557 254.1370 0000822  77.9945 345.3199 15.75153463  2939
STARLINK-34082          
1 64100U 25110E   25155.08334491 -.00192668  00000+0 -13354-2 0  9991
2 64100  53.1568 253.3040 0000805  91.8358 198.9095 15.74294280  2965
STARLINK-34072          
1 64101U 25110F   25154.91668981 -.01100884  00000+0 -80969-2 0  9993
2 64101  53.1557 254.1290 0000520  93.7648 333.4858 15.75008593  2938
STARLINK-34104          
1 64102U 25110G   25154.91668981 -.01058111  00000+0 -77616-2 0  9994
2 64102  53.1559 254.1243 0000652  80.6144 348.5828 15.74966228  2932
STARLINK-34179          
1 64103U 25110H   25154.91668981 -.00955109  00000+0 -70791-2 0  9994
2 64103  53.1559 254.1205 0000905  61.8815   9.2849 15.74884343  2939
STARLINK-34176          
1 64104U 25110J   25156.49095655  .00125660  00000+0  85029-3 0  9992
2 64104  53.1587 246.3029 0000976  81.9699 278.1432 15.74168892  3276
STARLINK-33949          
1 64105U 25110K   25155.75002315  .00091343  00000+0  62276-3 0  9991
2 64105  53.1585 249.9773 0001130  66.8842  53.7892 15.74132050  3077
STARLINK-33970          
1 64106U 25110L   25154.91668981 -.00833452  00000+0 -61156-2 0  9998
2 64106  53.1556 254.1084 0000838  62.6820  14.3085 15.74774235  2931
STARLINK-33912          
1 64107U 25110M   25154.83335648 -.01255759  00000+0 -91363-2 0  9993
2 64107  53.1556 254.5194 0000989  67.3609 258.7276 15.75171429  2924
STARLINK-34156          
1 64108U 25110N   25154.83335648 -.01252125  00000+0 -91079-2 0  9992
2 64108  53.1553 254.5152 0000969  66.5566 261.4490 15.75169185  2922
STARLINK-34124          
1 64109U 25110P   25154.83335648 -.01211656  00000+0 -89594-2 0  9996
2 64109  53.1557 254.5111 0000993  69.0928 260.8440 15.75149992  2921
STARLINK-34145          
1 64110U 25110Q   25155.08334491  .00003216  00000+0  26269-4 0  9991
2 64110  53.1566 253.2637 0001116  77.0916 232.8813 15.74169175  2967
STARLINK-34148          
1 64111U 25110R   25154.91668981 -.00681971  00000+0 -49419-2 0  9999
2 64111  53.1560 254.0881 0000808  92.6240 354.0254 15.74644073  2930
STARLINK-34136          
1 64112U 25110S   25155.08334491  .00048034  00000+0  33095-3 0  9994
2 64112  53.1565 253.2550 0001105 101.0403 212.7653 15.74149888  2967
STARLINK-33839          
1 64113U 25110T   25154.83335648 -.01116112  00000+0 -82083-2 0  9998
2 64113  53.1555 254.4945 0000916  82.0217 255.6617 15.75043116  2928
STARLINK-34064          
1 64114U 25110U   25155.08334491  .00045790  00000+0  31579-3 0  9997
2 64114  53.1568 253.2471 0001022 100.0617 217.5813 15.74148817  2960
STARLINK-34067          
1 64115U 25110V   25154.91668981 -.00631059  00000+0 -45528-2 0  9992
2 64115  53.1558 254.0716 0000861  84.7355   9.6047 15.74605798  2930
STARLINK-34080          
1 64116U 25110W   25154.91668981 -.00621299  00000+0 -44787-2 0  9994
2 64116  53.1559 254.0677 0000820  84.8784  11.3826 15.74598251  2930
STARLINK-34122          
1 64117U 25110X   25155.08334491  .00010574  00000+0  76478-4 0  9990
2 64117  53.1569 253.2352 0001071  75.8571 247.5355 15.74164846  2968
STARLINK-33964          
1 64118U 25110Y   25154.91668981 -.00664507  00000+0 -48066-2 0  9999
2 64118  53.1560 254.0594 0000865  60.6422  39.4296 15.74637550  2930
STARLINK-34160          
1 64119U 25110Z   25154.83335648 -.01103885  00000+0 -81036-2 0  9994
2 64119  53.1558 254.4709 0000948  68.3174 280.8459 15.75055030  2921
STARLINK-34151          
1 64120U 25110AA  25155.66668981  .00032035  00000+0  22255-3 0  9991
2 64120  53.1586 250.3305 0001162  75.2554 321.6429 15.74151576  3067
STARLINK-34189          
1 64121U 25110AB  25155.66668981 -.00010702  00000+0 -68927-4 0  9998
2 64121  53.1587 250.3231 0001156  75.4590 325.2717 15.74170325  3065
STARLINK-33991          
1 64122U 25110AC  25154.91668981 -.00602407  00000+0 -43354-2 0  9990
2 64122  53.1563 254.0484 0000841  82.3466  23.5084 15.74584107  2937
STARLINK-11727 [DTC]    
1 64123U 25111A   25156.52429982  .00105973  00000+0  60363-3 0  9991
2 64123  43.0015 206.7223 0001527 271.9363  88.1333 15.77880222  3011
STARLINK-11724 [DTC]    
1 64124U 25111B   25156.51976163 -.00258438  00000+0 -13827-2 0  9998
2 64124  43.0024 206.6851 0002205 296.4251  63.6394 15.80042229  3016
STARLINK-11725 [DTC]    
1 64125U 25111C   25156.51699487 -.00298404  00000+0 -14297-2 0  9999
2 64125  43.0022 206.6623 0001625 284.1709  75.8982 15.82517463  3016
STARLINK-11717 [DTC]    
1 64126U 25111D   25157.52347257 -.00191598  00000+0 -82395-3 0  9998
2 64126  43.0020 200.4416 0001218 260.0004 100.0731 15.84510028  3123
STARLINK-11721 [DTC]    
1 64127U 25111E   25157.27241737 -.00271535  00000+0 -12648-2 0  9990
2 64127  43.0024 202.0019 0001807 254.6524 105.4148 15.83043975  3138
STARLINK-11722 [DTC]    
1 64128U 25111F   25157.46005372  .00246662  00000+0  99822-3 0  9996
2 64128  43.0023 200.8275 0001798 270.7440  89.3227 15.84838165  3113
STARLINK-11679 [DTC]    
1 64129U 25111G   25157.52264712  .00162713  00000+0  66612-3 0  9994
2 64129  43.0025 200.4366 0001147 269.9454  90.1288 15.84824006  3178
STARLINK-11735 [DTC]    
1 64130U 25111H   25157.45922337  .00156055  00000+0  63976-3 0  9994
2 64130  43.0023 200.8203 0001545 274.2383  85.8314 15.84813449  3017
STARLINK-11720 [DTC]    
1 64131U 25111J   25157.45882095  .00141240  00000+0  58045-3 0  9992
2 64131  43.0024 200.8171 0000839 299.2591  60.8197 15.84806022  3118
STARLINK-11718 [DTC]    
1 64132U 25111K   25157.51360197  .00198501  00000+0  80854-3 0  9999
2 64132  43.0024 200.3619 0001601 277.3246  82.7445 15.84830255  3230
